[
  {
    "OBJECT_NAME": "STARLINK-34898",
    "OBJECT_ID": "25224P",
    "EPOCH": "2025-11-11T03:59:39.076800",
    "MEAN_MOTION": 15.49339116,
    "ECCENTRICITY": 0.0001167,
    "INCLINATION": 53.158,
    "RA_OF_ASC_NODE": 202.1631,
    "ARG_OF_PERICENTER": 103.1222,
    "MEAN_ANOMALY": 256.9918,
    "EPHEMERIS_TYPE": 0,
    "CLASSIFICATION_TYPE": "U",
    "NORAD_CAT_ID": 65895,
    "ELEMENT_SET_NO": 999,
    "REV_AT_EPOCH": 672,
    "BSTAR": 0.0016911,
    "MEAN_MOTION_DOT": 0.00094854,
    "MEAN_MOTION_DDOT": 0.0,
    "TLE_LINE1": "1 65895U 25224P   25315.16642450  .00094854  00000+0  16911-2 0  9991",
    "TLE_LINE2": "2 65895  53.1580 202.1631 0001167 103.1222 256.9918 15.49339116  6725",
    "COMMENT": "Grouped by shell and plane from TLE"
  },
  {
    "OBJECT_NAME": "STARLINK-34906",
    "OBJECT_ID": "25224Q",
    "EPOCH": "2025-11-11T05:33:17.703360",
    "MEAN_MOTION": 15.48338755,
    "ECCENTRICITY": 7.91e-05,
    "INCLINATION": 53.1605,
    "RA_OF_ASC_NODE": 201.8577,
    "ARG_OF_PERICENTER": 165.8783,
    "MEAN_ANOMALY": 194.2248,
    "EPHEMERIS_TYPE": 0,
    "CLASSIFICATION_TYPE": "U",
    "NORAD_CAT_ID": 65896,
    "ELEMENT_SET_NO": 999,
    "REV_AT_EPOCH": 673,
    "BSTAR": 0.0,
    "MEAN_MOTION_DOT": -0.00303743,
    "MEAN_MOTION_DDOT": 0.0,
    "TLE_LINE1": "1 65896U 25224Q   25315.23145490 -.00303743  00000+0 -58652-2 0  9992",
    "TLE_LINE2": "2 65896  53.1605 201.8577 0000791 165.8783 194.2248 15.48338755  6736",
    "COMMENT": "Grouped by shell and plane from TLE"
  },
  {
    "OBJECT_NAME": "STARLINK-34934",
    "OBJECT_ID": "25224R",
    "EPOCH": "2025-11-11T05:31:33.158496",
    "MEAN_MOTION": 15.49354914,
    "ECCENTRICITY": 0.000117,
    "INCLINATION": 53.1596,
    "RA_OF_ASC_NODE": 201.8505,
    "ARG_OF_PERICENTER": 100.1968,
    "MEAN_ANOMALY": 259.9174,
    "EPHEMERIS_TYPE": 0,
    "CLASSIFICATION_TYPE": "U",
    "NORAD_CAT_ID": 65897,
    "ELEMENT_SET_NO": 999,
    "REV_AT_EPOCH": 668,
    "BSTAR": 0.0023844,
    "MEAN_MOTION_DOT": 0.0013469,
    "MEAN_MOTION_DDOT": 0.0,
    "TLE_LINE1": "1 65897U 25224R   25315.23024489  .00134690  00000+0  23844-2 0  9993",
    "TLE_LINE2": "2 65897  53.1596 201.8505 0001170 100.1968 259.9174 15.49354914  6683",
    "COMMENT": "Grouped by shell and plane from TLE"
  },
  {
    "OBJECT_NAME": "STARLINK-34936",
    "OBJECT_ID": "25224S",
    "EPOCH": "2025-11-11T02:26:15.946080",
    "MEAN_MOTION": 15.49356133,
    "ECCENTRICITY": 8.26e-05,
    "INCLINATION": 53.1601,
    "RA_OF_ASC_NODE": 202.4699,
    "ARG_OF_PERICENTER": 42.0907,
    "MEAN_ANOMALY": 318.0166,
    "EPHEMERIS_TYPE": 0,
    "CLASSIFICATION_TYPE": "U",
    "NORAD_CAT_ID": 65898,
    "ELEMENT_SET_NO": 999,
    "REV_AT_EPOCH": 671,
    "BSTAR": 0.0015908,
    "MEAN_MOTION_DOT": 0.00089188,
    "MEAN_MOTION_DDOT": 0.0,
    "TLE_LINE1": "1 65898U 25224S   25315.10157345  .00089188  00000+0  15908-2 0  9991",
    "TLE_LINE2": "2 65898  53.1601 202.4699 0000826  42.0907 318.0166 15.49356133  6713",
    "COMMENT": "Grouped by shell and plane from TLE"
  },
  {
    "OBJECT_NAME": "STARLINK-35272",
    "OBJECT_ID": "25224T",
    "EPOCH": "2025-11-11T03:58:10.507296",
    "MEAN_MOTION": 15.49343016,
    "ECCENTRICITY": 0.0002688,
    "INCLINATION": 53.1603,
    "RA_OF_ASC_NODE": 202.1551,
    "ARG_OF_PERICENTER": 17.1906,
    "MEAN_ANOMALY": 342.9194,
    "EPHEMERIS_TYPE": 0,
    "CLASSIFICATION_TYPE": "U",
    "NORAD_CAT_ID": 65899,
    "ELEMENT_SET_NO": 999,
    "REV_AT_EPOCH": 671,
    "BSTAR": 0.0014696000000000002,
    "MEAN_MOTION_DOT": 0.00082256,
    "MEAN_MOTION_DDOT": 0.0,
    "TLE_LINE1": "1 65899U 25224T   25315.16539939  .00082256  00000+0  14696-2 0  9993",
    "TLE_LINE2": "2 65899  53.1603 202.1551 0002688  17.1906 342.9194 15.49343016  6713",
    "COMMENT": "Grouped by shell and plane from TLE"
  },
  {
    "OBJECT_NAME": "STARLINK-35264",
    "OBJECT_ID": "25224U",
    "EPOCH": "2025-11-11T08:00:03.000384",
    "MEAN_MOTION": 15.49334146,
    "ECCENTRICITY": 0.000127,
    "INCLINATION": 53.1594,
    "RA_OF_ASC_NODE": 201.3486,
    "ARG_OF_PERICENTER": 73.3661,
    "MEAN_ANOMALY": 146.077,
    "EPHEMERIS_TYPE": 0,
    "CLASSIFICATION_TYPE": "U",
    "NORAD_CAT_ID": 65900,
    "ELEMENT_SET_NO": 999,
    "REV_AT_EPOCH": 600,
    "BSTAR": 0.0,
    "MEAN_MOTION_DOT": -0.0009628,
    "MEAN_MOTION_DDOT": 0.0,
    "TLE_LINE1": "1 65900U 25224U   25315.33336806 -.00096280  00000+0 -17428-2 0  9993",
    "TLE_LINE2": "2 65900  53.1594 201.3486 0001270  73.3661 146.0770 15.49334146  6000",
    "COMMENT": "Grouped by shell and plane from TLE"
  },
  {
    "OBJECT_NAME": "STARLINK-35249",
    "OBJECT_ID": "25224V",
    "EPOCH": "2025-11-11T08:00:03.000384",
    "MEAN_MOTION": 15.4354106,
    "ECCENTRICITY": 0.0001295,
    "INCLINATION": 53.1588,
    "RA_OF_ASC_NODE": 201.3719,
    "ARG_OF_PERICENTER": 90.5899,
    "MEAN_ANOMALY": 117.3825,
    "EPHEMERIS_TYPE": 0,
    "CLASSIFICATION_TYPE": "U",
    "NORAD_CAT_ID": 65901,
    "ELEMENT_SET_NO": 999,
    "REV_AT_EPOCH": 600,
    "BSTAR": 0.0,
    "MEAN_MOTION_DOT": -0.02080608,
    "MEAN_MOTION_DDOT": 0.0,
    "TLE_LINE1": "1 65901U 25224V   25315.33336806 -.02080608  00000+0 -51440-1 0  9994",
    "TLE_LINE2": "2 65901  53.1588 201.3719 0001295  90.5899 117.3825 15.43541060  6005",
    "COMMENT": "Grouped by shell and plane from TLE"
  },
  {
    "OBJECT_NAME": "STARLINK-35278",
    "OBJECT_ID": "25224W",
    "EPOCH": "2025-11-11T04:04:29.488800",
    "MEAN_MOTION": 15.40548139,
    "ECCENTRICITY": 9.72e-05,
    "INCLINATION": 53.1594,
    "RA_OF_ASC_NODE": 202.1832,
    "ARG_OF_PERICENTER": 107.834,
    "MEAN_ANOMALY": 252.2771,
    "EPHEMERIS_TYPE": 0,
    "CLASSIFICATION_TYPE": "U",
    "NORAD_CAT_ID": 65902,
    "ELEMENT_SET_NO": 999,
    "REV_AT_EPOCH": 672,
    "BSTAR": 0.0,
    "MEAN_MOTION_DOT": -0.00410024,
    "MEAN_MOTION_DDOT": 0.0,
    "TLE_LINE1": "1 65902U 25224W   25315.16978575 -.00410024  00000+0 -10475-1 0  9991",
    "TLE_LINE2": "2 65902  53.1594 202.1832 0000972 107.8340 252.2771 15.40548139  6721",
    "COMMENT": "Grouped by shell and plane from TLE"
  },
  {
    "OBJECT_NAME": "STARLINK-35210",
    "OBJECT_ID": "25224X",
    "EPOCH": "2025-11-11T04:12:27.412992",
    "MEAN_MOTION": 15.37224035,
    "ECCENTRICITY": 0.0001433,
    "INCLINATION": 53.1589,
    "RA_OF_ASC_NODE": 202.2175,
    "ARG_OF_PERICENTER": 130.8586,
    "MEAN_ANOMALY": 229.2543,
    "EPHEMERIS_TYPE": 0,
    "CLASSIFICATION_TYPE": "U",
    "NORAD_CAT_ID": 65903,
    "ELEMENT_SET_NO": 999,
    "REV_AT_EPOCH": 670,
    "BSTAR": 0.0,
    "MEAN_MOTION_DOT": -0.00407489,
    "MEAN_MOTION_DDOT": 0.0,
    "TLE_LINE1": "1 65903U 25224X   25315.17531728 -.00407489  00000+0 -11608-1 0  9998",
    "TLE_LINE2": "2 65903  53.1589 202.2175 0001433 130.8586 229.2543 15.37224035  6709",
    "COMMENT": "Grouped by shell and plane from TLE"
  },
  {
    "OBJECT_NAME": "STARLINK-35348",
    "OBJECT_ID": "25224Y",
    "EPOCH": "2025-11-11T08:00:03.000384",
    "MEAN_MOTION": 15.49333015,
    "ECCENTRICITY": 0.0001216,
    "INCLINATION": 53.1594,
    "RA_OF_ASC_NODE": 201.3409,
    "ARG_OF_PERICENTER": 76.6927,
    "MEAN_ANOMALY": 146.5806,
    "EPHEMERIS_TYPE": 0,
    "CLASSIFICATION_TYPE": "U",
    "NORAD_CAT_ID": 65904,
    "ELEMENT_SET_NO": 999,
    "REV_AT_EPOCH": 600,
    "BSTAR": 0.0,
    "MEAN_MOTION_DOT": -0.00092051,
    "MEAN_MOTION_DDOT": 0.0,
    "TLE_LINE1": "1 65904U 25224Y   25315.33336806 -.00092051  00000+0 -16651-2 0  9996",
    "TLE_LINE2": "2 65904  53.1594 201.3409 0001216  76.6927 146.5806 15.49333015  6009",
    "COMMENT": "Grouped by shell and plane from TLE"
  },
  {
    "OBJECT_NAME": "STARLINK-35380",
    "OBJECT_ID": "25224Z",
    "EPOCH": "2025-11-10T17:04:58.047744",
    "MEAN_MOTION": 15.49363979,
    "ECCENTRICITY": 0.0001627,
    "INCLINATION": 53.1585,
    "RA_OF_ASC_NODE": 204.3026,
    "ARG_OF_PERICENTER": 133.635,
    "MEAN_ANOMALY": 226.4795,
    "EPHEMERIS_TYPE": 0,
    "CLASSIFICATION_TYPE": "U",
    "NORAD_CAT_ID": 65905,
    "ELEMENT_SET_NO": 999,
    "REV_AT_EPOCH": 660,
    "BSTAR": 0.0017612,
    "MEAN_MOTION_DOT": 0.00098945,
    "MEAN_MOTION_DDOT": 0.0,
    "TLE_LINE1": "1 65905U 25224Z   25314.71178296  .00098945  00000+0  17612-2 0  9999",
    "TLE_LINE2": "2 65905  53.1585 204.3026 0001627 133.6350 226.4795 15.49363979  6601",
    "COMMENT": "Grouped by shell and plane from TLE"
  },
  {
    "OBJECT_NAME": "STARLINK-35385",
    "OBJECT_ID": "25224AA",
    "EPOCH": "2025-11-11T02:21:19.147392",
    "MEAN_MOTION": 15.49350025,
    "ECCENTRICITY": 8.16e-05,
    "INCLINATION": 53.1598,
    "RA_OF_ASC_NODE": 202.4457,
    "ARG_OF_PERICENTER": 80.9971,
    "MEAN_ANOMALY": 279.113,
    "EPHEMERIS_TYPE": 0,
    "CLASSIFICATION_TYPE": "U",
    "NORAD_CAT_ID": 65906,
    "ELEMENT_SET_NO": 999,
    "REV_AT_EPOCH": 669,
    "BSTAR": 0.002016,
    "MEAN_MOTION_DOT": 0.00113477,
    "MEAN_MOTION_DDOT": 0.0,
    "TLE_LINE1": "1 65906U 25224AA  25315.09813828  .00113477  00000+0  20160-2 0  9999",
    "TLE_LINE2": "2 65906  53.1598 202.4457 0000816  80.9971 279.1130 15.49350025  6690",
    "COMMENT": "Grouped by shell and plane from TLE"
  },
  {
    "OBJECT_NAME": "STARLINK-35347",
    "OBJECT_ID": "25224AB",
    "EPOCH": "2025-11-11T06:59:30.006528",
    "MEAN_MOTION": 15.49405861,
    "ECCENTRICITY": 8.25e-05,
    "INCLINATION": 53.1597,
    "RA_OF_ASC_NODE": 201.5172,
    "ARG_OF_PERICENTER": 68.0483,
    "MEAN_ANOMALY": 292.0614,
    "EPHEMERIS_TYPE": 0,
    "CLASSIFICATION_TYPE": "U",
    "NORAD_CAT_ID": 65907,
    "ELEMENT_SET_NO": 999,
    "REV_AT_EPOCH": 672,
    "BSTAR": 0.0025137,
    "MEAN_MOTION_DOT": 0.00142418,
    "MEAN_MOTION_DDOT": 0.0,
    "TLE_LINE1": "1 65907U 25224AB  25315.29131952  .00142418  00000+0  25137-2 0  9999",
    "TLE_LINE2": "2 65907  53.1597 201.5172 0000825  68.0483 292.0614 15.49405861  6723",
    "COMMENT": "Grouped by shell and plane from TLE"
  }
]